{"type":"FeatureCollection","name":"seoul_urban_regeneration_innovation_reference","metadata":{"available":true,"source_type":"OFFICIAL_NOTICE_DIGITIZED_REFERENCE","legal_source":true,"reference_name":"서울 현행 도시재생혁신지구 고시도 벡터화 참조","reference_scope":"서울 현행 도시재생혁신지구: 용산·김포공항","reference_date":"2026-09-15","feature_count":4,"district_count":2,"geometry_basis":"official_notice_and_official_plan_map_digitization","negative_authority":false,"sources":[{"name":"용산 도시재생혁신지구 국가시범지구 지정(변경) 및 지형도면 등","notice_no":"국토교통부 고시 제2024-693호","date":"2024-12-04","area_m2":13963},{"name":"김포공항 도시재생 혁신지구(국가시범지구) 지정 및 지형도면 등의 고시","notice_no":"국토교통부 고시 제2024-466호","date":"2024-09-09","area_m2":354567}],"note":"원 SHP가 아닌 고시·공식계획도 수동 벡터화 참조도형. 내부 명백 중첩은 보조 확정근거로 사용하고, 비중첩만으로 법적 비해당을 확정하지 않는다. 음성판정은 VWorld NED selected-PNU 전수조회와 결합한다."},"features":[{"type":"Feature","id":"YONGSAN_URBAN_REGEN_INNOVATION","properties":{"reference_id":"YONGSAN_URBAN_REGEN_INNOVATION","name":"용산 도시재생혁신지구","category":"urban_regeneration_innovation","status":"designated","notice_no":"국토교통부 고시 제2024-693호","notice_date":"2024-12-04","official_area_m2":13963,"source_type":"OFFICIAL_NOTICE_DIGITIZED_REFERENCE","legal_source":true,"geometry_basis":"digitized_from_official_notice_and_official_plan_map","geometry_precision":"screening_reference_not_survey_boundary","negative_authority":false,"parts":["한강로3가 23-1 일부(국유지 7,350㎡)","한강로3가 40-1051(시유지 3,791㎡)","도로 2,822㎡"],"anchors":["한강로3가 23-1","한강로3가 40-1051"],"note":"초기 사업가능성 자동검토용 고시·공식계획도 벡터화 참조. 경계부/비중첩은 VWorld NED 토지이용계획 및 최신 고시 지형도면으로 재확인.","digitized_area_m2":12272.0},"geometry":{"type":"Polygon","coordinates":[[[126.96372146820663,37.53141304349539],[126.96489754008326,37.531384271770854],[126.9649385401804,37.5324469535703],[126.96376245158193,37.53247572520957],[126.96372146820663,37.53141304349539]]]}},{"type":"Feature","id":"GIMPO_AIRPORT_URBAN_REGEN_INNOVATION_B1","properties":{"reference_id":"GIMPO_AIRPORT_URBAN_REGEN_INNOVATION_B1","name":"김포공항 도시재생혁신지구 1블록","category":"urban_regeneration_innovation","status":"designated","notice_no":"국토교통부 고시 제2024-466호","notice_date":"2024-09-09","official_area_m2":354567,"source_type":"OFFICIAL_NOTICE_DIGITIZED_REFERENCE","legal_source":true,"geometry_basis":"digitized_from_official_notice_and_official_plan_map","geometry_precision":"screening_reference_not_survey_boundary","negative_authority":false,"parts":["1블록"],"anchors":["강서구 공항동 1373 일원","국립항공박물관","김포공항 국내선·화물청사"],"note":"초기 사업가능성 자동검토용 고시·공식계획도 벡터화 참조. 경계부/비중첩은 VWorld NED 토지이용계획 및 최신 고시 지형도면으로 재확인.","digitized_area_m2":180000.0},"geometry":{"type":"Polygon","coordinates":[[[126.80164728488894,37.5572743633533],[126.80965471705949,37.556074210494295],[126.80669797744119,37.56110128535659],[126.80164728488894,37.5572743633533]]]}},{"type":"Feature","id":"GIMPO_AIRPORT_URBAN_REGEN_INNOVATION_B2","properties":{"reference_id":"GIMPO_AIRPORT_URBAN_REGEN_INNOVATION_B2","name":"김포공항 도시재생혁신지구 2블록","category":"urban_regeneration_innovation","status":"designated","notice_no":"국토교통부 고시 제2024-466호","notice_date":"2024-09-09","official_area_m2":354567,"source_type":"OFFICIAL_NOTICE_DIGITIZED_REFERENCE","legal_source":true,"geometry_basis":"digitized_from_official_notice_and_official_plan_map","geometry_precision":"screening_reference_not_survey_boundary","negative_authority":false,"parts":["2블록"],"anchors":["강서구 공항동 1373 일원","국립항공박물관","김포공항 국내선·화물청사"],"note":"초기 사업가능성 자동검토용 고시·공식계획도 벡터화 참조. 경계부/비중첩은 VWorld NED 토지이용계획 및 최신 고시 지형도면으로 재확인.","digitized_area_m2":49875.0},"geometry":{"type":"Polygon","coordinates":[[[126.8077053446413,37.55351398302259],[126.81076087560645,37.55269226393174],[126.81139467329578,37.554185988635815],[126.80833908662197,37.55500772224691],[126.8077053446413,37.55351398302259]]]}},{"type":"Feature","id":"GIMPO_AIRPORT_URBAN_REGEN_INNOVATION_B3","properties":{"reference_id":"GIMPO_AIRPORT_URBAN_REGEN_INNOVATION_B3","name":"김포공항 도시재생혁신지구 3블록","category":"urban_regeneration_innovation","status":"designated","notice_no":"국토교통부 고시 제2024-466호","notice_date":"2024-09-09","official_area_m2":354567,"source_type":"OFFICIAL_NOTICE_DIGITIZED_REFERENCE","legal_source":true,"geometry_basis":"digitized_from_official_notice_and_official_plan_map","geometry_precision":"screening_reference_not_survey_boundary","negative_authority":false,"parts":["3블록"],"anchors":["강서구 공항동 1373 일원","국립항공박물관","김포공항 국내선·화물청사"],"note":"초기 사업가능성 자동검토용 고시·공식계획도 벡터화 참조. 경계부/비중첩은 VWorld NED 토지이용계획 및 최신 고시 지형도면으로 재확인.","digitized_area_m2":73500.0},"geometry":{"type":"Polygon","coordinates":[[[126.80948172143012,37.551608645289974],[126.81398444527228,37.55039758976076],[126.81461829103945,37.55189129909755],[126.81011548511451,37.5531023760278],[126.80948172143012,37.551608645289974]]]}}]}